NORAD_CAT_ID,OBJECT_NAME,OBJECT_TYPE,EPOCH,MEAN_MOTION,ECCENTRICITY,INCLINATION,RA_OF_ASC_NODE,ARG_OF_PERICENTER,MEAN_ANOMALY,BSTAR,MEAN_MOTION_DOT,MEAN_MOTION_DDOT,TLE_LINE0,TLE_LINE1,TLE_LINE2,SEMIMAJOR_AXIS,PERIOD,APOGEE,PERIGEE,DECAYED
50848.0,STARLINK-3315,PAYLOAD,2023-03-06 17:38:11,15.08825875,0.0001261,53.2159,72.5179,97.6519,262.4616,-0.00034778,-5.816e-05,0.0,0 STARLINK-3315,1 50848U 22001AX  23065.73485892 -.00005816  00000-0 -34778-3 0  9996,2 50848  53.2159  72.5179 0001261  97.6519 262.4616 15.08825875 65670,6917.924,95.438,540.661,538.916,0.0
50848.0,STARLINK-3315,PAYLOAD,2023-03-07 06:21:16,15.08834853,7.84e-05,53.2166,70.1392,103.9695,256.1384,0.00026043,3.859e-05,0.0,0 STARLINK-3315,1 50848U 22001AX  23066.26478004  .00003859  00000-0  26043-3 0  9991,2 50848  53.2166  70.1392 0000784 103.9695 256.1384 15.08834853 65751,6917.896,95.438,540.303,539.219,0.0
50848.0,STARLINK-3315,PAYLOAD,2023-03-07 17:28:59,15.08841935,0.0001405,53.2137,68.0569,87.4401,272.6752,0.00062822,9.725e-05,0.0,0 STARLINK-3315,1 50848U 22001AX  23066.72846266  .00009725  00000-0  62822-3 0  9994,2 50848  53.2137  68.0569 0001405  87.4401 272.6752 15.08841935 64517,6917.874,95.437,540.711,538.768,0.0
50848.0,STARLINK-3315,PAYLOAD,2023-03-08 10:58:13,15.08859799,0.0001834,53.2171,64.7839,95.2289,264.8912,0.00097031,0.00015197,0.0,0 STARLINK-3315,1 50848U 22001AX  23067.45710122  .00015197  00000-0  97031-3 0  9996,2 50848  53.2171  64.7839 0001834  95.2289 264.8912 15.08859799 65930,6917.82,95.436,540.954,538.416,0.0
50848.0,STARLINK-3315,PAYLOAD,2023-03-08 17:19:46,15.08847718,0.0001515,53.2163,63.597,91.2612,268.8553,0.00059546,9.203e-05,0.0,0 STARLINK-3315,1 50848U 22001AX  23067.72206276  .00009203  00000-0  59546-3 0  9996,2 50848  53.2163  63.5970 0001515  91.2612 268.8553 15.08847718 64668,6917.857,95.437,540.77,538.674,0.0
50848.0,STARLINK-3315,PAYLOAD,2023-03-08 23:41:18,15.08863329,0.0001585,53.2157,62.4076,91.8152,268.3021,0.0012642,0.00019902,0.0,0 STARLINK-3315,1 50848U 22001AX  23067.98702192  .00019902  00000-0  12642-2 0  9994,2 50848  53.2157  62.4076 0001585  91.8152 268.3021 15.08863329 66010,6917.809,95.436,540.771,538.578,0.0
50848.0,STARLINK-3315,PAYLOAD,2023-03-09 09:13:36,15.088756,0.0001767,53.217,60.6226,97.2215,262.8978,0.001847,0.00029258,0.0,0 STARLINK-3315,1 50848U 22001AX  23068.38445523  .00029258  00000-0  18470-2 0  9991,2 50848  53.2170  60.6226 0001767  97.2215 262.8978 15.08875600 64769,6917.772,95.435,540.859,538.414,0.0
50848.0,STARLINK-3315,PAYLOAD,2023-03-10 05:53:37,15.08866945,9.95e-05,53.2176,56.7564,90.31,269.8006,0.0020577,0.00032636,0.0,0 STARLINK-3315,1 50848U 22001AX  23069.24557292  .00032636  00000-0  20577-2 0  9999,2 50848  53.2176  56.7564 0000995  90.3100 269.8006 15.08866945 66207,6917.798,95.436,540.351,538.975,0.0
50848.0,STARLINK-3315,PAYLOAD,2023-03-10 09:04:23,15.08873351,0.0001174,53.2175,56.1622,91.4386,268.6741,0.0020254,0.00032123,0.0,0 STARLINK-3315,1 50848U 22001AX  23069.37805060  .00032123  00000-0  20254-2 0  9995,2 50848  53.2175  56.1622 0001174  91.4386 268.6741 15.08873351 64911,6917.778,95.435,540.456,538.831,0.0
50848.0,STARLINK-3315,PAYLOAD,2023-03-11 05:44:25,15.08842562,0.0001067,53.2179,52.2972,121.5249,238.5848,0.0021624,0.00034297,0.0,0 STARLINK-3315,1 50848U 22001AX  23070.23918341  .00034297  00000-0  21624-2 0  9995,2 50848  53.2179  52.2972 0001067 121.5249 238.5848 15.08842562 66358,6917.873,95.437,540.476,538.999,0.0
50848.0,STARLINK-3315,PAYLOAD,2023-03-11 10:30:34,15.08855545,0.0001232,53.2179,51.4049,122.3012,237.8099,0.002155,0.0003419,0.0,0 STARLINK-3315,1 50848U 22001AX  23070.43790198  .00034190  00000-0  21550-2 0  9995,2 50848  53.2179  51.4049 0001232 122.3012 237.8099 15.08855545 65078,6917.833,95.437,540.55,538.846,0.0
50848.0,STARLINK-3315,PAYLOAD,2023-03-12 08:45:59,15.08851285,0.0001353,53.2186,47.243,102.3274,257.7869,0.0017747,0.00028078,0.0,0 STARLINK-3315,1 50848U 22001AX  23071.36527076  .00028078  00000-0  17747-2 0  9992,2 50848  53.2186  47.2430 0001353 102.3274 257.7869 15.08851285 66529,6917.846,95.437,540.647,538.775,0.0
50848.0,STARLINK-3315,PAYLOAD,2023-03-12 21:29:04,15.08852163,0.0001672,53.2175,44.8639,102.4885,257.6294,0.0018153,0.0002873,0.0,0 STARLINK-3315,1 50848U 22001AX  23071.89519332  .00028730  00000-0  18153-2 0  9993,2 50848  53.2175  44.8639 0001672 102.4885 257.6294 15.08852163 66600,6917.843,95.437,540.865,538.552,0.0
50848.0,STARLINK-3315,PAYLOAD,2023-03-13 07:01:23,15.08856548,0.0001088,53.2175,43.0793,114.0849,246.0257,0.0011113,0.00017451,0.0,0 STARLINK-3315,1 50848U 22001AX  23072.29262946  .00017451  00000-0  11113-2 0  9991,2 50848  53.2175  43.0793 0001088 114.0849 246.0257 15.08856548 66660,6917.83,95.437,540.447,538.942,0.0
50848.0,STARLINK-3315,PAYLOAD,2023-03-13 21:19:51,15.08858488,0.0002751,53.2165,40.4072,75.4094,284.7203,0.0012944,0.00020383,0.0,0 STARLINK-3315,1 50848U 22001AX  23072.88879455  .00020383  00000-0  12944-2 0  9996,2 50848  53.2165  40.4072 0002751  75.4094 284.7203 15.08858488 66755,6917.824,95.436,541.592,537.786,0.0
50848.0,STARLINK-3315,PAYLOAD,2023-03-14 05:16:47,15.08849175,0.0001088,53.2187,38.9163,110.3149,249.796,0.0011011,0.00017284,0.0,0 STARLINK-3315,1 50848U 22001AX  23073.21999187  .00017284  00000-0  11011-2 0  9999,2 50848  53.2187  38.9163 0001088 110.3149 249.7960 15.08849175 66804,6917.852,95.437,540.47,538.965,0.0
50848.0,STARLINK-3315,PAYLOAD,2023-03-14 08:27:33,15.08855102,0.0001111,53.2184,38.3211,107.969,252.1424,0.0010215,0.00016013,0.0,0 STARLINK-3315,1 50848U 22001AX  23073.35247047  .00016013  00000-0  10215-2 0  9999,2 50848  53.2184  38.3211 0001111 107.9690 252.1424 15.08855102 65516,6917.834,95.437,540.468,538.931,0.0
50848.0,STARLINK-3315,PAYLOAD,2023-03-14 14:49:06,15.088526,0.0001357,53.2182,37.1322,82.4401,277.6745,0.00078434,0.00012221,0.0,0 STARLINK-3315,1 50848U 22001AX  23073.61743393  .00012221  00000-0  78434-3 0  9998,2 50848  53.2182  37.1322 0001357  82.4401 277.6745 15.08852600 66860,6917.842,95.437,540.646,538.768,0.0
50848.0,STARLINK-3315,PAYLOAD,2023-03-15 06:42:56,15.08887887,0.0001246,53.2177,34.159,79.4203,280.6929,0.002049,0.00032515,0.0,0 STARLINK-3315,1 50848U 22001AX  23074.27982137  .00032515  00000-0  20490-2 0  9998,2 50848  53.2177  34.1590 0001246  79.4203 280.6929 15.08887887 66965,6917.734,95.435,540.461,538.737,0.0
50848.0,STARLINK-3315,PAYLOAD,2023-03-16 03:22:57,15.0885955,0.0001003,53.2176,30.2934,106.6416,253.4686,0.0014263,0.00022497,0.0,0 STARLINK-3315,1 50848U 22001AX  23075.14093927  .00022497  00000-0  14263-2 0  9994,2 50848  53.2176  30.2934 0001003 106.6416 253.4686 15.08859550 67092,6917.821,95.436,540.379,538.992,0.0
50848.0,STARLINK-3315,PAYLOAD,2023-03-16 06:33:43,15.08870388,0.0001006,53.2176,29.6988,103.0495,257.061,0.0019247,0.00030502,0.0,0 STARLINK-3315,1 50848U 22001AX  23075.27341703  .00030502  00000-0  19247-2 0  9999,2 50848  53.2176  29.6988 0001006 103.0495 257.0610 15.08870388 65800,6917.788,95.436,540.348,538.957,0.0
50848.0,STARLINK-3315,PAYLOAD,2023-03-17 00:02:58,15.08841296,0.0001122,53.2184,26.4276,105.4523,254.6593,0.0016157,0.0002552,0.0,0 STARLINK-3315,1 50848U 22001AX  23076.00206729  .00025520  00000-0  16157-2 0  9990,2 50848  53.2184  26.4276 0001122 105.4523 254.6593 15.08841296 67228,6917.876,95.437,540.518,538.965,0.0
50848.0,STARLINK-3315,PAYLOAD,2023-03-17 03:13:44,15.08844071,0.0001041,53.2181,25.8334,74.9531,285.1577,0.0017756,0.00028087,0.0,0 STARLINK-3315,1 50848U 22001AX  23076.13454838  .00028087  00000-0  17756-2 0  9997,2 50848  53.2181  25.8334 0001041  74.9531 285.1577 15.08844071 65933,6917.868,95.437,540.453,539.013,0.0
50848.0,STARLINK-3315,PAYLOAD,2023-03-18 04:39:55,15.08853391,0.0001194,53.2175,21.0743,89.585,270.5279,0.0011336,0.00017806,0.0,0 STARLINK-3315,1 50848U 22001AX  23077.19439120  .00017806  00000-0  11336-2 0  9996,2 50848  53.2175  21.0743 0001194  89.5850 270.5279 15.08853391 67409,6917.839,95.437,540.53,538.878,0.0
50848.0,STARLINK-3315,PAYLOAD,2023-03-18 12:36:51,15.08852615,0.0001348,53.218,19.5882,93.4747,266.64,0.00074534,0.00011598,0.0,0 STARLINK-3315,1 50848U 22001AX  23077.52559143  .00011598  00000-0  74534-3 0  9993,2 50848  53.2180  19.5882 0001348  93.4747 266.6400 15.08852615 67456,6917.842,95.437,540.639,538.774,0.0
50848.0,STARLINK-3315,PAYLOAD,2023-03-19 04:30:42,15.08856681,0.0001249,53.2193,16.6176,88.4612,271.6523,0.00063854,9.894e-05,0.0,0 STARLINK-3315,1 50848U 22001AX  23078.18798696  .00009894  00000-0  63854-3 0  9993,2 50848  53.2193  16.6176 0001249  88.4612 271.6523 15.08856681 67559,6917.829,95.436,540.558,538.83,0.0
50848.0,STARLINK-3315,PAYLOAD,2023-03-19 18:49:10,15.08842291,0.0001575,53.2188,13.9391,84.7038,275.4134,0.00038211,5.799e-05,0.0,0 STARLINK-3315,1 50848U 22001AX  23078.78415022  .00005799  00000-0  38211-3 0  9997,2 50848  53.2188  13.9391 0001575  84.7038 275.4134 15.08842291 67647,6917.873,95.437,540.828,538.649,0.0
50848.0,STARLINK-3315,PAYLOAD,2023-03-20 04:21:29,15.08856462,0.0001023,53.2186,12.1552,98.1124,261.9984,0.0010395,0.00016302,0.0,0 STARLINK-3315,1 50848U 22001AX  23079.18158735  .00016302  00000-0  10395-2 0  9991,2 50848  53.2186  12.1552 0001023  98.1124 261.9984 15.08856462 67703,6917.83,95.437,540.403,538.987,0.0
50848.0,STARLINK-3315,PAYLOAD,2023-03-21 04:12:16,15.08848754,0.0001349,53.2185,7.6931,78.34,281.7744,0.00065242,0.00010113,0.0,0 STARLINK-3315,1 50848U 22001AX  23080.17519122  .00010113  00000-0  65242-3 0  9999,2 50848  53.2185   7.6931 0001349  78.3400 281.7744 15.08848754 67855,6917.854,95.437,540.652,538.785,0.0
50848.0,STARLINK-3315,PAYLOAD,2023-03-21 21:41:31,15.08828357,0.0001236,53.2177,4.4237,88.7121,271.4013,0.00036608,5.541e-05,0.0,0 STARLINK-3315,1 50848U 22001AX  23080.90383837  .00005541  00000-0  36608-3 0  9995,2 50848  53.2177   4.4237 0001236  88.7121 271.4013 15.08828357 66659,6917.916,95.438,540.636,538.926,0.0
